{"epoch":1784762836,"count":18316,"objects":[{"id":"29601","name":"NAVSTAR 59 (USA 192)","type":"PAYLOAD","l1":"1 29601U 06052A   26202.32243536  .00000075  00000-0  00000-0 0  9993","l2":"2 29601  54.9318 212.6530 0084749  91.0110 269.9907  2.00560107144094"},{"id":"32260","name":"NAVSTAR 60 (USA 196)","type":"PAYLOAD","l1":"1 32260U 07047A   26203.12692944 -.00000073  00000-0  00000-0 0  9992","l2":"2 32260  54.1211  78.6253 0168019  88.1578 273.8213  2.00553746137517"},{"id":"32384","name":"NAVSTAR 61 (USA 199)","type":"PAYLOAD","l1":"1 32384U 07062A   26203.44714995 -.00000034  00000-0  00000-0 0  9999","l2":"2 32384  55.0037 272.7334 0036068 168.2064 191.1622  2.00562126136219"},{"id":"32711","name":"NAVSTAR 62 (USA 201)","type":"PAYLOAD","l1":"1 32711U 08012A   26202.53637968  .00000024  00000-0  00000-0 0  9990","l2":"2 32711  54.5004 148.5525 0211735 248.2108 109.5034  2.00573366134448"},{"id":"34661","name":"NAVSTAR 63 (USA 203)","type":"PAYLOAD","l1":"1 34661U 09014A   26202.95918861  .00000082  00000-0  00000-0 0  9993","l2":"2 34661  54.4855 209.2604 0144344  61.2598 303.3886  2.00572149126984"},{"id":"35752","name":"NAVSTAR 64 (USA 206)","type":"PAYLOAD","l1":"1 35752U 09043A   26203.53798519 -.00000082  00000-0  00000-0 0  9999","l2":"2 35752  56.2325  26.0647 0053647  84.7105 285.5515  2.00552541124071"},{"id":"36585","name":"NAVSTAR 65 (USA 213)","type":"PAYLOAD","l1":"1 36585U 10022A   26203.35751557  .00000085  00000-0  00000-0 0  9996","l2":"2 36585  54.2681 207.1453 0126901  66.1639 294.0229  2.00564201118296"},{"id":"37753","name":"NAVSTAR 66 (USA 232)","type":"PAYLOAD","l1":"1 37753U 11036A   26202.79957433 -.00000111  00000-0  00000-0 0  9999","l2":"2 37753  56.5470 330.6735 0141481  62.9320 320.5408  2.00561984109975"},{"id":"38833","name":"NAVSTAR 67 (USA 239)","type":"PAYLOAD","l1":"1 38833U 12053A   26202.21868512  .00000014  00000-0  00000-0 0  9996","l2":"2 38833  53.5902 142.2050 0182408  66.3332 295.5491  2.00568090100120"},{"id":"39166","name":"NAVSTAR 68 (USA 242)","type":"PAYLOAD","l1":"1 39166U 13023A   26203.08371062 -.00000025  00000-0  00000-0 0  9992","l2":"2 39166  54.4778 267.5502 0141404  51.1079 310.2126  2.00563446 96589"},{"id":"39533","name":"NAVSTAR 69 (USA 248)","type":"PAYLOAD","l1":"1 39533U 14008A   26203.08558290  .00000016  00000-0  00000-0 0  9993","l2":"2 39533  53.6583 147.8962 0084029 231.5745 127.6466  2.00562088 90385"},{"id":"39741","name":"NAVSTAR 70 (USA 251)","type":"PAYLOAD","l1":"1 39741U 14026A   26203.36185617 -.00000111  00000-0  00000-0 0  9991","l2":"2 39741  56.4791 330.1484 0038189 325.5817  34.1763  2.00558522 89247"},{"id":"40105","name":"NAVSTAR 71 (USA 256)","type":"PAYLOAD","l1":"1 40105U 14045A   26202.95485960 -.00000067  00000-0  00000-0 0  9996","l2":"2 40105  55.3757  87.0795 0034720 118.5048 241.8949  2.00560793 86770"}]}